start=new Date('2022-04-17T00:00:00.000Z').valueOf();
sats=[{"ELEMENT_SET_NO":"999","LAUNCH_DATE":"2022-03-09","MEAN_ANOMALY":"252.1972","TLE_LINE1":"1 51963U 22025H   22106.91668981  .00140597  00000-0  99587-3 0  9991","RCS_SIZE":"LARGE","ARG_OF_PERICENTER":"137.5259","OBJECT_NAME":"STARLINK-3675","MEAN_MOTION_DDOT":"0.0000000000000","CENTER_NAME":"EARTH","REF_FRAME":"TEME","EPHEMERIS_TYPE":"0","DECAY_DATE":null,"OBJECT_ID":"2022-025H","COUNTRY_CODE":"US","MEAN_MOTION":"15.73049748","MEAN_MOTION_DOT":"0.00140597","NORAD_CAT_ID":"51963","MEAN_ELEMENT_THEORY":"SGP4","SEMIMAJOR_AXIS":"6728.324","REV_AT_EPOCH":"730","EPOCH":"2022-04-16T22:00:01.999584","CLASSIFICATION_TYPE":"U","RA_OF_ASC_NODE":"309.9742","INCLINATION":"53.2139","GP_ID":"201393157","ECCENTRICITY":"0.00011810","TIME_SYSTEM":"UTC","PERIAPSIS":"349.394","TLE_LINE2":"2 51963  53.2139 309.9742 0001181 137.5259 252.1972 15.73049748  7302","OBJECT_TYPE":"PAYLOAD","SITE":"AFETR","BSTAR":"0.00099587000000","APOAPSIS":"350.983","PERIOD":"91.542","FILE":"3404523"},{"ECCENTRICITY":"0.00010210","TIME_SYSTEM":"UTC","PERIAPSIS":"349.437","TLE_LINE2":"2 51964  53.2143 309.9652 0001021 122.6487 272.2029 15.73072346  3693","OBJECT_TYPE":"PAYLOAD","SITE":"AFETR","BSTAR":"0.00049525000000","PERIOD":"91.541","APOAPSIS":"350.811","FILE":"3404767","MEAN_ELEMENT_THEORY":"SGP4","SEMIMAJOR_AXIS":"6728.259","REV_AT_EPOCH":"369","EPOCH":"2022-04-16T22:00:01.999584","RA_OF_ASC_NODE":"309.9652","INCLINATION":"53.2143","CLASSIFICATION_TYPE":"U","GP_ID":"201423298","EPHEMERIS_TYPE":"0","DECAY_DATE":null,"OBJECT_ID":"2022-025J","MEAN_MOTION":"15.73072346","COUNTRY_CODE":"US","MEAN_MOTION_DOT":"0.00069078","NORAD_CAT_ID":"51964","ELEMENT_SET_NO":"999","LAUNCH_DATE":"2022-03-09","MEAN_ANOMALY":"272.2029","TLE_LINE1":"1 51964U 22025J   22106.91668981  .00069078  00000-0  49525-3 0  9993","RCS_SIZE":"LARGE","ARG_OF_PERICENTER":"122.6487","OBJECT_NAME":"STARLINK-3690","MEAN_MOTION_DDOT":"0.0000000000000","CENTER_NAME":"EARTH","REF_FRAME":"TEME"},{"SITE":"AFETR","BSTAR":"0.00052840000000","APOAPSIS":"351.255","PERIOD":"91.543","FILE":"3404767","ECCENTRICITY":"0.00015300","PERIAPSIS":"349.196","TIME_SYSTEM":"UTC","TLE_LINE2":"2 51965  53.2139 309.9693 0001530 128.8544 263.4514 15.73036797  3715","OBJECT_TYPE":"PAYLOAD","CLASSIFICATION_TYPE":"U","INCLINATION":"53.2139","RA_OF_ASC_NODE":"309.9693","GP_ID":"201423744","MEAN_ELEMENT_THEORY":"SGP4","SEMIMAJOR_AXIS":"6728.361","EPOCH":"2022-04-16T22:00:01.999584","REV_AT_EPOCH":"371","MEAN_MOTION":"15.73036797","COUNTRY_CODE":"US","MEAN_MOTION_DOT":"0.00073672","NORAD_CAT_ID":"51965","EPHEMERIS_TYPE":"0","DECAY_DATE":null,"OBJECT_ID":"2022-025K","RCS_SIZE":"LARGE","ARG_OF_PERICENTER":"128.8544","OBJECT_NAME":"STARLINK-3696","MEAN_MOTION_DDOT":"0.0000000000000","CENTER_NAME":"EARTH","REF_FRAME":"TEME","LAUNCH_DATE":"2022-03-09","ELEMENT_SET_NO":"999","MEAN_ANOMALY":"263.4514","TLE_LINE1":"1 51965U 22025K   22106.91668981  .00073672  00000-0  52840-3 0  9993"},{"ECCENTRICITY":"0.00014040","OBJECT_TYPE":"PAYLOAD","TLE_LINE2":"2 51966  53.2145 309.9633 0001404 116.9320 279.1866 15.73004750  3715","TIME_SYSTEM":"UTC","PERIAPSIS":"349.372","APOAPSIS":"351.262","PERIOD":"91.545","BSTAR":"0.00126550000000","SITE":"AFETR","FILE":"3404767","MEAN_ELEMENT_THEORY":"SGP4","REV_AT_EPOCH":"371","EPOCH":"2022-04-16T22:00:01.999584","SEMIMAJOR_AXIS":"6728.452","GP_ID":"201423922","INCLINATION":"53.2145","CLASSIFICATION_TYPE":"U","RA_OF_ASC_NODE":"309.9633","EPHEMERIS_TYPE":"0","OBJECT_ID":"2022-025L","DECAY_DATE":null,"MEAN_MOTION":"15.73004750","COUNTRY_CODE":"US","NORAD_CAT_ID":"51966","MEAN_MOTION_DOT":"0.00179321","MEAN_ANOMALY":"279.1866","LAUNCH_DATE":"2022-03-09","ELEMENT_SET_NO":"999","TLE_LINE1":"1 51966U 22025L   22106.91668981  .00179321  00000-0  12655-2 0  9991","OBJECT_NAME":"STARLINK-3699","ARG_OF_PERICENTER":"116.9320","RCS_SIZE":"LARGE","REF_FRAME":"TEME","CENTER_NAME":"EARTH","MEAN_MOTION_DDOT":"0.0000000000000"},{"RCS_SIZE":"LARGE","OBJECT_NAME":"STARLINK-3695","ARG_OF_PERICENTER":"130.5148","CENTER_NAME":"EARTH","MEAN_MOTION_DDOT":"0.0000000000000","REF_FRAME":"TEME","MEAN_ANOMALY":"263.0524","LAUNCH_DATE":"2022-03-09","ELEMENT_SET_NO":"999","TLE_LINE1":"1 51967U 22025M   22106.91668981  .00121944  00000-0  86702-3 0  9995","MEAN_MOTION":"15.73028769","COUNTRY_CODE":"US","MEAN_MOTION_DOT":"0.00121944","NORAD_CAT_ID":"51967","EPHEMERIS_TYPE":"0","DECAY_DATE":null,"OBJECT_ID":"2022-025M","RA_OF_ASC_NODE":"309.9676","INCLINATION":"53.2142","CLASSIFICATION_TYPE":"U","GP_ID":"201423832","MEAN_ELEMENT_THEORY":"SGP4","SEMIMAJOR_AXIS":"6728.383","REV_AT_EPOCH":"371","EPOCH":"2022-04-16T22:00:01.999584","SITE":"AFETR","PERIOD":"91.543","APOAPSIS":"351.299","BSTAR":"0.00086702000000","FILE":"3404767","ECCENTRICITY":"0.00015610","PERIAPSIS":"349.198","TIME_SYSTEM":"UTC","OBJECT_TYPE":"PAYLOAD","TLE_LINE2":"2 51967  53.2142 309.9676 0001561 130.5148 263.0524 15.73028769  3713"},{"FILE":"3404523","SITE":"AFETR","PERIOD":"91.539","APOAPSIS":"350.655","BSTAR":"0.00046607000000","TIME_SYSTEM":"UTC","PERIAPSIS":"349.475","OBJECT_TYPE":"PAYLOAD","TLE_LINE2":"2 51968  53.2147 309.9610 0000877 125.0575 272.3922 15.73093232  7311","ECCENTRICITY":"0.00008770","INCLINATION":"53.2147","RA_OF_ASC_NODE":"309.9610","CLASSIFICATION_TYPE":"U","GP_ID":"201393159","SEMIMAJOR_AXIS":"6728.200","REV_AT_EPOCH":"731","EPOCH":"2022-04-16T22:00:01.999584","MEAN_ELEMENT_THEORY":"SGP4","MEAN_MOTION_DOT":"0.00064997","NORAD_CAT_ID":"51968","COUNTRY_CODE":"US","MEAN_MOTION":"15.73093232","DECAY_DATE":null,"OBJECT_ID":"2022-025N","EPHEMERIS_TYPE":"0","CENTER_NAME":"EARTH","MEAN_MOTION_DDOT":"0.0000000000000","REF_FRAME":"TEME","RCS_SIZE":"LARGE","OBJECT_NAME":"STARLINK-3681","ARG_OF_PERICENTER":"125.0575","TLE_LINE1":"1 51968U 22025N   22106.91668981  .00064997  00000-0  46607-3 0  9990","MEAN_ANOMALY":"272.3922","ELEMENT_SET_NO":"999","LAUNCH_DATE":"2022-03-09"},{"NORAD_CAT_ID":"51969","MEAN_MOTION_DOT":"0.00070241","MEAN_MOTION":"15.73075559","COUNTRY_CODE":"US","OBJECT_ID":"2022-025P","DECAY_DATE":null,"EPHEMERIS_TYPE":"0","REF_FRAME":"TEME","CENTER_NAME":"EARTH","MEAN_MOTION_DDOT":"0.0000000000000","OBJECT_NAME":"STARLINK-3680","ARG_OF_PERICENTER":"114.7766","RCS_SIZE":"LARGE","TLE_LINE1":"1 51969U 22025P   22106.91668981  .00070241  00000-0  50338-3 0  9996","MEAN_ANOMALY":"279.4326","LAUNCH_DATE":"2022-03-09","ELEMENT_SET_NO":"999","FILE":"3404767","PERIOD":"91.540","APOAPSIS":"350.896","BSTAR":"0.00050338000000","SITE":"AFETR","OBJECT_TYPE":"PAYLOAD","TLE_LINE2":"2 51969  53.2143 309.9665 0001161 114.7766 279.4326 15.73075559  3697","TIME_SYSTEM":"UTC","PERIAPSIS":"349.334","ECCENTRICITY":"0.00011610","GP_ID":"201423390","CLASSIFICATION_TYPE":"U","INCLINATION":"53.2143","RA_OF_ASC_NODE":"309.9665","EPOCH":"2022-04-16T22:00:01.999584","REV_AT_EPOCH":"369","SEMIMAJOR_AXIS":"6728.250","MEAN_ELEMENT_THEORY":"SGP4"},{"CLASSIFICATION_TYPE":"U","RA_OF_ASC_NODE":"309.9591","INCLINATION":"53.2147","GP_ID":"201423568","MEAN_ELEMENT_THEORY":"SGP4","SEMIMAJOR_AXIS":"6728.300","REV_AT_EPOCH":"371","EPOCH":"2022-04-16T22:00:01.999584","SITE":"AFETR","BSTAR":"0.00046315000000","APOAPSIS":"350.992","PERIOD":"91.541","FILE":"3404767","ECCENTRICITY":"0.00012300","PERIAPSIS":"349.337","TIME_SYSTEM":"UTC","TLE_LINE2":"2 51970  53.2147 309.9591 0001230 103.5267 295.1554 15.73058189  3711","OBJECT_TYPE":"PAYLOAD","RCS_SIZE":"LARGE","ARG_OF_PERICENTER":"103.5267","OBJECT_NAME":"STARLINK-3677","MEAN_MOTION_DDOT":"0.0000000000000","CENTER_NAME":"EARTH","REF_FRAME":"TEME","ELEMENT_SET_NO":"999","LAUNCH_DATE":"2022-03-09","MEAN_ANOMALY":"295.1554","TLE_LINE1":"1 51970U 22025Q   22106.91668981  .00064485  00000-0  46315-3 0  9991","COUNTRY_CODE":"US","MEAN_MOTION":"15.73058189","MEAN_MOTION_DOT":"0.00064485","NORAD_CAT_ID":"51970","EPHEMERIS_TYPE":"0","DECAY_DATE":null,"OBJECT_ID":"2022-025Q"},{"GP_ID":"201423477","RA_OF_ASC_NODE":"309.9643","INCLINATION":"53.2143","CLASSIFICATION_TYPE":"U","REV_AT_EPOCH":"369","EPOCH":"2022-04-16T22:00:01.999584","SEMIMAJOR_AXIS":"6728.247","MEAN_ELEMENT_THEORY":"SGP4","FILE":"3404767","APOAPSIS":"350.942","PERIOD":"91.540","BSTAR":"0.00049681000000","SITE":"AFETR","OBJECT_TYPE":"PAYLOAD","TLE_LINE2":"2 51971  53.2143 309.9643 0001233 127.7945 267.6926 15.73076606  3698","TIME_SYSTEM":"UTC","PERIAPSIS":"349.282","ECCENTRICITY":"0.00012330","REF_FRAME":"TEME","CENTER_NAME":"EARTH","MEAN_MOTION_DDOT":"0.0000000000000","OBJECT_NAME":"STARLINK-3669","ARG_OF_PERICENTER":"127.7945","RCS_SIZE":"LARGE","TLE_LINE1":"1 51971U 22025R   22106.91668981  .00069312  00000-0  49681-3 0  9995","MEAN_ANOMALY":"267.6926","ELEMENT_SET_NO":"999","LAUNCH_DATE":"2022-03-09","NORAD_CAT_ID":"51971","MEAN_MOTION_DOT":"0.00069312","COUNTRY_CODE":"US","MEAN_MOTION":"15.73076606","OBJECT_ID":"2022-025R","DECAY_DATE":null,"EPHEMERIS_TYPE":"0"},{"PERIOD":"91.540","APOAPSIS":"350.796","BSTAR":"0.00047561000000","SITE":"AFETR","FILE":"3404767","ECCENTRICITY":"0.00010210","OBJECT_TYPE":"PAYLOAD","TLE_LINE2":"2 51972  53.2150 309.9569 0001021 121.5503 278.3976 15.73077476  3691","PERIAPSIS":"349.423","TIME_SYSTEM":"UTC","GP_ID":"201423299","INCLINATION":"53.2150","RA_OF_ASC_NODE":"309.9569","CLASSIFICATION_TYPE":"U","MEAN_ELEMENT_THEORY":"SGP4","REV_AT_EPOCH":"369","EPOCH":"2022-04-16T22:00:01.999584","SEMIMAJOR_AXIS":"6728.245","COUNTRY_CODE":"US","MEAN_MOTION":"15.73077476","NORAD_CAT_ID":"51972","MEAN_MOTION_DOT":"0.00066306","EPHEMERIS_TYPE":"0","OBJECT_ID":"2022-025S","DECAY_DATE":null,"OBJECT_NAME":"STARLINK-3671","ARG_OF_PERICENTER":"121.5503","RCS_SIZE":"LARGE","REF_FRAME":"TEME","CENTER_NAME":"EARTH","MEAN_MOTION_DDOT":"0.0000000000000","MEAN_ANOMALY":"278.3976","LAUNCH_DATE":"2022-03-09","ELEMENT_SET_NO":"999","TLE_LINE1":"1 51972U 22025S   22106.91668981  .00066306  00000-0  47561-3 0  9991"}];
